STARLINK-36707          
1 67706U 26025P   26064.58335648  .00081354  00000+0  54227-3 0  9994
2 67706  97.2852 176.0232 0001207  82.1163  73.4274 15.75140856  5030
STARLINK-36645          
1 67707U 26025Q   26064.26193994  .00509647  00000+0  31939-2 0  9990
2 67707  97.2855 175.6297 0001492 146.6495 213.4865 15.75363904  5246
STARLINK-36287          
1 67708U 26025R   26064.58335648  .00034728  00000+0  23314-3 0  9992
2 67708  97.2855 176.0530 0001457  81.7051 143.8581 15.75151753  5350
STARLINK-36698          
1 67709U 26025S   26064.58335648 -.00603031  00000+0 -42612-2 0  9995
2 67709  97.2855 176.0717 0001624  66.3103 203.0242 15.75579563  5199
STARLINK-36344          
1 67710U 26025T   26064.58335648  .00008454  00000+0  57547-4 0  9998
2 67710  97.2852 176.0329 0001208 116.4448  63.0879 15.75168077  5356
STARLINK-36687          
1 67711U 26025U   26064.28338741  .00282124  00000+0  14194-2 0  9990
2 67711  97.2853 175.7525 0001408  66.9884 293.1533 15.80925780  5268
STARLINK-36705          
1 67712U 26025V   26064.30570420  .00155513  00000+0  10207-2 0  9998
2 67712  97.2869 175.7196 0001524  71.2062 288.9369 15.75277922  5256
STARLINK-36708          
1 67713U 26025W   26062.24691656  .00571415  00000+0  27641-2 0  9998
2 67713  97.2866 173.6220 0001327 127.8035 232.3354 15.81043377  4931
STARLINK-36702          
1 67714U 26025X   26064.58335648 -.01943363  00000+0 -13354-1 0  9997
2 67714  97.2856 176.0888 0001414  63.7179 248.8868 15.77818026  4996
STARLINK-36718          
1 67715U 26025Y   26064.26836116  .00533321  00000+0  25936-2 0  9995
2 67715  97.2858 175.7714 0000945  83.1117 277.0258 15.81023468  5259
STARLINK-36715          
1 67716U 26025Z   26064.58692853  .00556110  00000+0  26962-2 0  9990
2 67716  97.2860 176.1040 0000818 139.8817 220.2512 15.81031108  5304
STARLINK-36385          
1 67717U 26025AA  26064.52988190  .00322169  00000+0  16132-2 0  9990
2 67717  97.2857 176.0286 0001377  17.8478 342.2838 15.80926556  5294
CZ-2F DEB               
1 67718U 26024E   26058.50732833  .00191604  00000+0  35886-2 0  9997
2 67718  50.3169  68.5830 0246509 240.0171 117.6115 15.20915897  3086
CZ-2F DEB               
1 67719U 26024F   26064.42637261  .00159912  00000+0  38472-2 0  9995
2 67719  49.7929  42.4485 0315420 254.3722 102.2210 15.02321935  3607
CZ-2F DEB               
1 67720U 26024G   26064.40645481  .00153334  00000+0  37965-2 0  9996
2 67720  49.8321  43.1094 0326258 250.4321 106.1127 14.99600446  3919
STARLINK-36772          
1 67721U 26026A   26064.58335648 -.01885601  00000+0 -22997-1 0  9999
2 67721  97.2836 119.0188 0001446  88.8655 204.5965 15.63544079  4653
