[{"OBJECT_NAME":"STARLINK-36707","OBJECT_ID":"2026-025P","EPOCH":"2026-03-05T14:00:01.999872","MEAN_MOTION":15.75140856,"ECCENTRICITY":0.00012076,"INCLINATION":97.2852,"RA_OF_ASC_NODE":176.0232,"ARG_OF_PERICENTER":82.1163,"MEAN_ANOMALY":73.4274,"EPHEMERIS_TYPE":0,"CLASSIFICATION_TYPE":"U","NORAD_CAT_ID":67706,"ELEMENT_SET_NO":999,"REV_AT_EPOCH":503,"BSTAR":0.00054227476,"MEAN_MOTION_DOT":0.00081354,"MEAN_MOTION_DDOT":0},{"OBJECT_NAME":"STARLINK-36645","OBJECT_ID":"2026-025Q","EPOCH":"2026-03-05T06:17:11.610816","MEAN_MOTION":15.75363904,"ECCENTRICITY":0.00014922,"INCLINATION":97.2855,"RA_OF_ASC_NODE":175.6297,"ARG_OF_PERICENTER":146.6495,"MEAN_ANOMALY":213.4865,"EPHEMERIS_TYPE":0,"CLASSIFICATION_TYPE":"U","NORAD_CAT_ID":67707,"ELEMENT_SET_NO":999,"REV_AT_EPOCH":524,"BSTAR":0.0031938887,"MEAN_MOTION_DOT":0.00509647,"MEAN_MOTION_DDOT":0},{"OBJECT_NAME":"STARLINK-36287","OBJECT_ID":"2026-025R","EPOCH":"2026-03-05T14:00:01.999872","MEAN_MOTION":15.75151753,"ECCENTRICITY":0.00014579,"INCLINATION":97.2855,"RA_OF_ASC_NODE":176.053,"ARG_OF_PERICENTER":81.7051,"MEAN_ANOMALY":143.8581,"EPHEMERIS_TYPE":0,"CLASSIFICATION_TYPE":"U","NORAD_CAT_ID":67708,"ELEMENT_SET_NO":999,"REV_AT_EPOCH":535,"BSTAR":0.00023313598,"MEAN_MOTION_DOT":0.00034728,"MEAN_MOTION_DDOT":0},{"OBJECT_NAME":"STARLINK-36698","OBJECT_ID":"2026-025S","EPOCH":"2026-03-05T14:00:01.999872","MEAN_MOTION":15.75579563,"ECCENTRICITY":0.00016241,"INCLINATION":97.2855,"RA_OF_ASC_NODE":176.0717,"ARG_OF_PERICENTER":66.3103,"MEAN_ANOMALY":203.0242,"EPHEMERIS_TYPE":0,"CLASSIFICATION_TYPE":"U","NORAD_CAT_ID":67709,"ELEMENT_SET_NO":999,"REV_AT_EPOCH":519,"BSTAR":-0.0042611537,"MEAN_MOTION_DOT":-0.00603031,"MEAN_MOTION_DDOT":0},{"OBJECT_NAME":"STARLINK-36344","OBJECT_ID":"2026-025T","EPOCH":"2026-03-05T14:00:01.999872","MEAN_MOTION":15.75168077,"ECCENTRICITY":0.00012087,"INCLINATION":97.2852,"RA_OF_ASC_NODE":176.0329,"ARG_OF_PERICENTER":116.4448,"MEAN_ANOMALY":63.0879,"EPHEMERIS_TYPE":0,"CLASSIFICATION_TYPE":"U","NORAD_CAT_ID":67710,"ELEMENT_SET_NO":999,"REV_AT_EPOCH":535,"BSTAR":5.754695e-5,"MEAN_MOTION_DOT":8.454e-5,"MEAN_MOTION_DDOT":0},{"OBJECT_NAME":"STARLINK-36687","OBJECT_ID":"2026-025U","EPOCH":"2026-03-05T06:48:04.672224","MEAN_MOTION":15.8092578,"ECCENTRICITY":0.0001408,"INCLINATION":97.2853,"RA_OF_ASC_NODE":175.7525,"ARG_OF_PERICENTER":66.9884,"MEAN_ANOMALY":293.1533,"EPHEMERIS_TYPE":0,"CLASSIFICATION_TYPE":"U","NORAD_CAT_ID":67711,"ELEMENT_SET_NO":999,"REV_AT_EPOCH":526,"BSTAR":0.0014193738,"MEAN_MOTION_DOT":0.00282124,"MEAN_MOTION_DDOT":0},{"OBJECT_NAME":"STARLINK-36705","OBJECT_ID":"2026-025V","EPOCH":"2026-03-05T07:20:12.842880","MEAN_MOTION":15.75277922,"ECCENTRICITY":0.00015249,"INCLINATION":97.2869,"RA_OF_ASC_NODE":175.7196,"ARG_OF_PERICENTER":71.2062,"MEAN_ANOMALY":288.9369,"EPHEMERIS_TYPE":0,"CLASSIFICATION_TYPE":"U","NORAD_CAT_ID":67712,"ELEMENT_SET_NO":999,"REV_AT_EPOCH":525,"BSTAR":0.0010207301,"MEAN_MOTION_DOT":0.00155513,"MEAN_MOTION_DDOT":0},{"OBJECT_NAME":"STARLINK-36708","OBJECT_ID":"2026-025W","EPOCH":"2026-03-03T05:55:33.590784","MEAN_MOTION":15.81043377,"ECCENTRICITY":0.00013277,"INCLINATION":97.2866,"RA_OF_ASC_NODE":173.622,"ARG_OF_PERICENTER":127.8035,"MEAN_ANOMALY":232.3354,"EPHEMERIS_TYPE":0,"CLASSIFICATION_TYPE":"U","NORAD_CAT_ID":67713,"ELEMENT_SET_NO":999,"REV_AT_EPOCH":493,"BSTAR":0.002764055,"MEAN_MOTION_DOT":0.00571415,"MEAN_MOTION_DDOT":0},{"OBJECT_NAME":"STARLINK-36702","OBJECT_ID":"2026-025X","EPOCH":"2026-03-05T14:00:01.999872","MEAN_MOTION":15.77818026,"ECCENTRICITY":0.0001414,"INCLINATION":97.2856,"RA_OF_ASC_NODE":176.0888,"ARG_OF_PERICENTER":63.7179,"MEAN_ANOMALY":248.8868,"EPHEMERIS_TYPE":0,"CLASSIFICATION_TYPE":"U","NORAD_CAT_ID":67714,"ELEMENT_SET_NO":999,"REV_AT_EPOCH":499,"BSTAR":-0.013354259,"MEAN_MOTION_DOT":-0.01943363,"MEAN_MOTION_DDOT":0},{"OBJECT_NAME":"STARLINK-36718","OBJECT_ID":"2026-025Y","EPOCH":"2026-03-05T06:26:26.404224","MEAN_MOTION":15.81023468,"ECCENTRICITY":9.454e-5,"INCLINATION":97.2858,"RA_OF_ASC_NODE":175.7714,"ARG_OF_PERICENTER":83.1117,"MEAN_ANOMALY":277.0258,"EPHEMERIS_TYPE":0,"CLASSIFICATION_TYPE":"U","NORAD_CAT_ID":67715,"ELEMENT_SET_NO":999,"REV_AT_EPOCH":525,"BSTAR":0.0025935631,"MEAN_MOTION_DOT":0.00533321,"MEAN_MOTION_DDOT":0},{"OBJECT_NAME":"STARLINK-36715","OBJECT_ID":"2026-025Z","EPOCH":"2026-03-05T14:05:10.624992","MEAN_MOTION":15.81031108,"ECCENTRICITY":8.186e-5,"INCLINATION":97.286,"RA_OF_ASC_NODE":176.104,"ARG_OF_PERICENTER":139.8817,"MEAN_ANOMALY":220.2512,"EPHEMERIS_TYPE":0,"CLASSIFICATION_TYPE":"U","NORAD_CAT_ID":67716,"ELEMENT_SET_NO":999,"REV_AT_EPOCH":530,"BSTAR":0.002696176,"MEAN_MOTION_DOT":0.0055611,"MEAN_MOTION_DDOT":0},{"OBJECT_NAME":"STARLINK-36385","OBJECT_ID":"2026-025AA","EPOCH":"2026-03-05T12:43:01.796160","MEAN_MOTION":15.80926556,"ECCENTRICITY":0.00013775,"INCLINATION":97.2857,"RA_OF_ASC_NODE":176.0286,"ARG_OF_PERICENTER":17.8478,"MEAN_ANOMALY":342.2838,"EPHEMERIS_TYPE":0,"CLASSIFICATION_TYPE":"U","NORAD_CAT_ID":67717,"ELEMENT_SET_NO":999,"REV_AT_EPOCH":529,"BSTAR":0.0016131744,"MEAN_MOTION_DOT":0.00322169,"MEAN_MOTION_DDOT":0},{"OBJECT_NAME":"CZ-2F DEB","OBJECT_ID":"2026-024E","EPOCH":"2026-02-27T12:10:33.167712","MEAN_MOTION":15.20915897,"ECCENTRICITY":0.02465096,"INCLINATION":50.3169,"RA_OF_ASC_NODE":68.583,"ARG_OF_PERICENTER":240.0171,"MEAN_ANOMALY":117.6115,"EPHEMERIS_TYPE":0,"CLASSIFICATION_TYPE":"U","NORAD_CAT_ID":67718,"ELEMENT_SET_NO":999,"REV_AT_EPOCH":308,"BSTAR":0.0035886422,"MEAN_MOTION_DOT":0.00191604,"MEAN_MOTION_DDOT":0},{"OBJECT_NAME":"CZ-2F DEB","OBJECT_ID":"2026-024F","EPOCH":"2026-03-05T10:13:58.593504","MEAN_MOTION":15.02321935,"ECCENTRICITY":0.03154203,"INCLINATION":49.7929,"RA_OF_ASC_NODE":42.4485,"ARG_OF_PERICENTER":254.3722,"MEAN_ANOMALY":102.221,"EPHEMERIS_TYPE":0,"CLASSIFICATION_TYPE":"U","NORAD_CAT_ID":67719,"ELEMENT_SET_NO":999,"REV_AT_EPOCH":360,"BSTAR":0.0038471533,"MEAN_MOTION_DOT":0.00159912,"MEAN_MOTION_DDOT":0},{"OBJECT_NAME":"CZ-2F DEB","OBJECT_ID":"2026-024G","EPOCH":"2026-03-05T09:45:17.695584","MEAN_MOTION":14.99600446,"ECCENTRICITY":0.03262585,"INCLINATION":49.8321,"RA_OF_ASC_NODE":43.1094,"ARG_OF_PERICENTER":250.4321,"MEAN_ANOMALY":106.1127,"EPHEMERIS_TYPE":0,"CLASSIFICATION_TYPE":"U","NORAD_CAT_ID":67720,"ELEMENT_SET_NO":999,"REV_AT_EPOCH":391,"BSTAR":0.0037965205,"MEAN_MOTION_DOT":0.00153334,"MEAN_MOTION_DDOT":0},{"OBJECT_NAME":"STARLINK-36772","OBJECT_ID":"2026-026A","EPOCH":"2026-03-05T14:00:01.999872","MEAN_MOTION":15.63544079,"ECCENTRICITY":0.00014464,"INCLINATION":97.2836,"RA_OF_ASC_NODE":119.0188,"ARG_OF_PERICENTER":88.8655,"MEAN_ANOMALY":204.5965,"EPHEMERIS_TYPE":0,"CLASSIFICATION_TYPE":"U","NORAD_CAT_ID":67721,"ELEMENT_SET_NO":999,"REV_AT_EPOCH":465,"BSTAR":-0.022997493,"MEAN_MOTION_DOT":-0.01885601,"MEAN_MOTION_DDOT":0}]
